[{"OBJECT_NAME":"YAOGAN-31 01C","OBJECT_ID":"2018-034C","EPOCH":"2026-03-09T23:47:40.038432","MEAN_MOTION":13.45432164,"ECCENTRICITY":0.02667527,"INCLINATION":63.3996,"RA_OF_ASC_NODE":345.8597,"ARG_OF_PERICENTER":6.8173,"MEAN_ANOMALY":353.6367,"EPHEMERIS_TYPE":0,"CLASSIFICATION_TYPE":"U","NORAD_CAT_ID":43277,"ELEMENT_SET_NO":999,"REV_AT_EPOCH":38889,"BSTAR":-0.00010548243,"MEAN_MOTION_DOT":-1.68e-6,"MEAN_MOTION_DDOT":0},{"OBJECT_NAME":"SL-8 R\/B","OBJECT_ID":"1984-109B","EPOCH":"2026-03-09T20:51:34.768224","MEAN_MOTION":13.77055753,"ECCENTRICITY":0.00422894,"INCLINATION":82.9418,"RA_OF_ASC_NODE":199.3074,"ARG_OF_PERICENTER":134.2279,"MEAN_ANOMALY":226.2364,"EPHEMERIS_TYPE":0,"CLASSIFICATION_TYPE":"U","NORAD_CAT_ID":15360,"ELEMENT_SET_NO":999,"REV_AT_EPOCH":7997,"BSTAR":0.00011843345,"MEAN_MOTION_DOT":1.33e-6,"MEAN_MOTION_DDOT":0}]
